[{"OBJECT_NAME":"STARLINK-30268","OBJECT_ID":"2023-115L","EPOCH":"2026-03-08T21:07:28.021152","MEAN_MOTION":15.26721238,"ECCENTRICITY":0.00014805,"INCLINATION":43.0036,"RA_OF_ASC_NODE":6.5067,"ARG_OF_PERICENTER":274.3297,"MEAN_ANOMALY":85.7385,"EPHEMERIS_TYPE":0,"CLASSIFICATION_TYPE":"U","NORAD_CAT_ID":57531,"ELEMENT_SET_NO":999,"REV_AT_EPOCH":14222,"BSTAR":-9.336672e-5,"MEAN_MOTION_DOT":-2.762e-5,"MEAN_MOTION_DDOT":0},{"OBJECT_NAME":"VSP ROSE","OBJECT_ID":"2024-043AC","EPOCH":"2026-03-09T21:48:06.922944","MEAN_MOTION":15.27746075,"ECCENTRICITY":0.00099339,"INCLINATION":97.5443,"RA_OF_ASC_NODE":203.927,"ARG_OF_PERICENTER":232.2702,"MEAN_ANOMALY":127.7637,"EPHEMERIS_TYPE":0,"CLASSIFICATION_TYPE":"U","NORAD_CAT_ID":59124,"ELEMENT_SET_NO":999,"REV_AT_EPOCH":11182,"BSTAR":0.00025731354,"MEAN_MOTION_DOT":6.907e-5,"MEAN_MOTION_DDOT":0}]
